CCSDS_OMM_VERS = 2.0
CREATION_DATE  = 
ORIGINATOR     = 

OBJECT_NAME    = SL-4 R/B
OBJECT_ID      = 2014-021B
CENTER_NAME    = EARTH
REF_FRAME      = TEME
TIME_SYSTEM    = UTC
MEAN_ELEMENT_THEORY = SGP/SGP4

EPOCH          = 2026-02-05T16:09:16.404192
MEAN_MOTION    = 15.38168742
ECCENTRICITY   = .0099048
INCLINATION    = 51.6065
RA_OF_ASC_NODE = 133.3414
ARG_OF_PERICENTER = 346.3080
MEAN_ANOMALY   = 13.5221

EPHEMERIS_TYPE = 0
CLASSIFICATION_TYPE = U
NORAD_CAT_ID   = 39679
ELEMENT_SET_NO = 999
REV_AT_EPOCH   = 65134
BSTAR          = .43274E-3
MEAN_MOTION_DOT = .19171E-3
MEAN_MOTION_DDOT = 0

CCSDS_OMM_VERS = 2.0
CREATION_DATE  = 
ORIGINATOR     = 

OBJECT_NAME    = ALOS-2
OBJECT_ID      = 2014-029A
CENTER_NAME    = EARTH
REF_FRAME      = TEME
TIME_SYSTEM    = UTC
MEAN_ELEMENT_THEORY = SGP/SGP4

EPOCH          = 2026-02-06T04:50:50.000640
MEAN_MOTION    = 14.79486851
ECCENTRICITY   = .0001445
INCLINATION    = 97.9220
RA_OF_ASC_NODE = 136.2522
ARG_OF_PERICENTER = 98.3296
MEAN_ANOMALY   = 261.8079

EPHEMERIS_TYPE = 0
CLASSIFICATION_TYPE = U
NORAD_CAT_ID   = 39766
ELEMENT_SET_NO = 999
REV_AT_EPOCH   = 63221
BSTAR          = .17247E-4
MEAN_MOTION_DOT = .77E-6
MEAN_MOTION_DDOT = 0

CCSDS_OMM_VERS = 2.0
CREATION_DATE  = 
ORIGINATOR     = 

OBJECT_NAME    = YAOGAN-29
OBJECT_ID      = 2015-069A
CENTER_NAME    = EARTH
REF_FRAME      = TEME
TIME_SYSTEM    = UTC
MEAN_ELEMENT_THEORY = SGP/SGP4

EPOCH          = 2026-02-06T05:12:38.952864
MEAN_MOTION    = 14.82957999
ECCENTRICITY   = .0002847
INCLINATION    = 98.0171
RA_OF_ASC_NODE = 65.5572
ARG_OF_PERICENTER = 88.5461
MEAN_ANOMALY   = 271.6078

EPHEMERIS_TYPE = 0
CLASSIFICATION_TYPE = U
NORAD_CAT_ID   = 41038
ELEMENT_SET_NO = 999
REV_AT_EPOCH   = 55121
BSTAR          = .76623E-4
MEAN_MOTION_DOT = .568E-5
MEAN_MOTION_DDOT = 0

CCSDS_OMM_VERS = 2.0
CREATION_DATE  = 
ORIGINATOR     = 

OBJECT_NAME    = ASTRO-H (HITOMI)
OBJECT_ID      = 2016-012A
CENTER_NAME    = EARTH
REF_FRAME      = TEME
TIME_SYSTEM    = UTC
MEAN_ELEMENT_THEORY = SGP/SGP4

EPOCH          = 2026-02-05T18:28:54.503328
MEAN_MOTION    = 15.09771099
ECCENTRICITY   = .00098671
INCLINATION    = 30.9980
RA_OF_ASC_NODE = 202.4944
ARG_OF_PERICENTER = 11.6980
MEAN_ANOMALY   = 348.3886

EPHEMERIS_TYPE = 0
CLASSIFICATION_TYPE = U
NORAD_CAT_ID   = 41337
ELEMENT_SET_NO = 999
REV_AT_EPOCH   = 54740
BSTAR          = .31185493E-3
MEAN_MOTION_DOT = .5259E-4
MEAN_MOTION_DDOT = 0

CCSDS_OMM_VERS = 2.0
CREATION_DATE  = 
ORIGINATOR     = 

OBJECT_NAME    = HXMT (HUIYAN)
OBJECT_ID      = 2017-034A
CENTER_NAME    = EARTH
REF_FRAME      = TEME
TIME_SYSTEM    = UTC
MEAN_ELEMENT_THEORY = SGP/SGP4

EPOCH          = 2026-02-05T21:57:28.618848
MEAN_MOTION    = 15.17043004
ECCENTRICITY   = .0031157
INCLINATION    = 43.0133
RA_OF_ASC_NODE = 193.2692
ARG_OF_PERICENTER = 31.5486
MEAN_ANOMALY   = 328.7222

EPHEMERIS_TYPE = 0
CLASSIFICATION_TYPE = U
NORAD_CAT_ID   = 42758
ELEMENT_SET_NO = 999
REV_AT_EPOCH   = 47771
BSTAR          = .5089E-3
MEAN_MOTION_DOT = .10152E-3
MEAN_MOTION_DDOT = 0

CCSDS_OMM_VERS = 2.0
CREATION_DATE  = 
ORIGINATOR     = 

OBJECT_NAME    = CZ-2C R/B
OBJECT_ID      = 2018-054D
CENTER_NAME    = EARTH
REF_FRAME      = TEME
TIME_SYSTEM    = UTC
MEAN_ELEMENT_THEORY = SGP/SGP4

EPOCH          = 2026-02-05T16:38:43.690272
MEAN_MOTION    = 15.94208740
ECCENTRICITY   = .0013223
INCLINATION    = 35.1296
RA_OF_ASC_NODE = 163.7715
ARG_OF_PERICENTER = 352.0460
MEAN_ANOMALY   = 8.0068

EPHEMERIS_TYPE = 0
CLASSIFICATION_TYPE = U
NORAD_CAT_ID   = 43521
ELEMENT_SET_NO = 999
REV_AT_EPOCH   = 42376
BSTAR          = .97534E-3
MEAN_MOTION_DOT = .383685E-2
MEAN_MOTION_DDOT = .57499E-4

CCSDS_OMM_VERS = 2.0
CREATION_DATE  = 
ORIGINATOR     = 

OBJECT_NAME    = SAOCOM 1A
OBJECT_ID      = 2018-076A
CENTER_NAME    = EARTH
REF_FRAME      = TEME
TIME_SYSTEM    = UTC
MEAN_ELEMENT_THEORY = SGP/SGP4

EPOCH          = 2026-02-06T03:58:22.738944
MEAN_MOTION    = 14.82156297
ECCENTRICITY   = .000145
INCLINATION    = 97.8864
RA_OF_ASC_NODE = 225.7853
ARG_OF_PERICENTER = 83.7054
MEAN_ANOMALY   = 276.4324

EPHEMERIS_TYPE = 0
CLASSIFICATION_TYPE = U
NORAD_CAT_ID   = 43641
ELEMENT_SET_NO = 999
REV_AT_EPOCH   = 39669
BSTAR          = .10557E-3
MEAN_MOTION_DOT = .788E-5
MEAN_MOTION_DDOT = 0

CCSDS_OMM_VERS = 2.0
CREATION_DATE  = 
ORIGINATOR     = 

OBJECT_NAME    = H-2A R/B
OBJECT_ID      = 2018-084L
CENTER_NAME    = EARTH
REF_FRAME      = TEME
TIME_SYSTEM    = UTC
MEAN_ELEMENT_THEORY = SGP/SGP4

EPOCH          = 2026-02-06T00:54:07.666272
MEAN_MOTION    = 15.39956754
ECCENTRICITY   = .0026339
INCLINATION    = 98.8757
RA_OF_ASC_NODE = 247.6942
ARG_OF_PERICENTER = 131.9263
MEAN_ANOMALY   = 228.4230

EPHEMERIS_TYPE = 0
CLASSIFICATION_TYPE = U
NORAD_CAT_ID   = 43682
ELEMENT_SET_NO = 999
REV_AT_EPOCH   = 40090
BSTAR          = .67576E-3
MEAN_MOTION_DOT = .27207E-3
MEAN_MOTION_DDOT = 0

CCSDS_OMM_VERS = 2.0
CREATION_DATE  = 
ORIGINATOR     = 

OBJECT_NAME    = SAOCOM 1B
OBJECT_ID      = 2020-059A
CENTER_NAME    = EARTH
REF_FRAME      = TEME
TIME_SYSTEM    = UTC
MEAN_ELEMENT_THEORY = SGP/SGP4

EPOCH          = 2026-02-06T04:43:22.848672
MEAN_MOTION    = 14.82160465
ECCENTRICITY   = .000132
INCLINATION    = 97.8860
RA_OF_ASC_NODE = 224.9144
ARG_OF_PERICENTER = 83.9120
MEAN_ANOMALY   = 276.2244

EPHEMERIS_TYPE = 0
CLASSIFICATION_TYPE = U
NORAD_CAT_ID   = 46265
ELEMENT_SET_NO = 999
REV_AT_EPOCH   = 29408
BSTAR          = .69686E-4
MEAN_MOTION_DOT = .503E-5
MEAN_MOTION_DDOT = 0

CCSDS_OMM_VERS = 2.0
CREATION_DATE  = 
ORIGINATOR     = 

OBJECT_NAME    = CSS (TIANHE)
OBJECT_ID      = 2021-035A
CENTER_NAME    = EARTH
REF_FRAME      = TEME
TIME_SYSTEM    = UTC
MEAN_ELEMENT_THEORY = SGP/SGP4

EPOCH          = 2026-02-06T03:40:36.067872
MEAN_MOTION    = 15.59276872
ECCENTRICITY   = .0005427
INCLINATION    = 41.4678
RA_OF_ASC_NODE = 39.8452
ARG_OF_PERICENTER = 11.3299
MEAN_ANOMALY   = 348.7661

EPHEMERIS_TYPE = 0
CLASSIFICATION_TYPE = U
NORAD_CAT_ID   = 48274
ELEMENT_SET_NO = 999
REV_AT_EPOCH   = 27268
BSTAR          = .34776E-3
MEAN_MOTION_DOT = .27917E-3
MEAN_MOTION_DDOT = 0

CCSDS_OMM_VERS = 2.0
CREATION_DATE  = 
ORIGINATOR     = 

OBJECT_NAME    = COSMOS 2550
OBJECT_ID      = 2021-056A
CENTER_NAME    = EARTH
REF_FRAME      = TEME
TIME_SYSTEM    = UTC
MEAN_ELEMENT_THEORY = SGP/SGP4

EPOCH          = 2026-02-06T05:13:28.815168
MEAN_MOTION    = 15.33832918
ECCENTRICITY   = .0008335
INCLINATION    = 67.1448
RA_OF_ASC_NODE = 136.1289
ARG_OF_PERICENTER = 270.0789
MEAN_ANOMALY   = 89.9410

EPHEMERIS_TYPE = 0
CLASSIFICATION_TYPE = U
NORAD_CAT_ID   = 48865
ELEMENT_SET_NO = 999
REV_AT_EPOCH   = 25863
BSTAR          = .86979E-4
MEAN_MOTION_DOT = .2671E-4
MEAN_MOTION_DDOT = 0

CCSDS_OMM_VERS = 2.0
CREATION_DATE  = 
ORIGINATOR     = 

OBJECT_NAME    = CZ-2C R/B
OBJECT_ID      = 2022-058K
CENTER_NAME    = EARTH
REF_FRAME      = TEME
TIME_SYSTEM    = UTC
MEAN_ELEMENT_THEORY = SGP/SGP4

EPOCH          = 2026-02-05T09:44:52.484064
MEAN_MOTION    = 15.51968467
ECCENTRICITY   = .00423678
INCLINATION    = 50.1890
RA_OF_ASC_NODE = 124.0666
ARG_OF_PERICENTER = 63.8858
MEAN_ANOMALY   = 296.6462

EPHEMERIS_TYPE = 0
CLASSIFICATION_TYPE = U
NORAD_CAT_ID   = 52794
ELEMENT_SET_NO = 999
REV_AT_EPOCH   = 20511
BSTAR          = .69408093E-3
MEAN_MOTION_DOT = .43938E-3
MEAN_MOTION_DDOT = 0

