SL-4 R/B                
1 39679U 14021B   26036.67310653  .00019171  00000+0  43274-3 0  9991
2 39679  51.6065 133.3414 0099048 346.3080  13.5221 15.38168742651340
ALOS-2                  
1 39766U 14029A   26037.20196760  .00000077  00000+0  17247-4 0  9994
2 39766  97.9220 136.2522 0001445  98.3296 261.8079 14.79486851632214
YAOGAN-29               
1 41038U 15069A   26037.21711751  .00000568  00000+0  76623-4 0  9996
2 41038  98.0171  65.5572 0002847  88.5461 271.6078 14.82957999551215
ASTRO-H (HITOMI)        
1 41337U 16012A   26036.77007527  .00005259  00000+0  31185-3 0  9991
2 41337  30.9980 202.4944 0009867  11.6980 348.3886 15.09771099547407
HXMT (HUIYAN)           
1 42758U 17034A   26036.91491457  .00010152  00000+0  50890-3 0  9991
2 42758  43.0133 193.2692 0031157  31.5486 328.7222 15.17043004477715
CZ-2C R/B               
1 43521U 18054D   26036.69356123  .00383685  57499-4  97534-3 0  9997
2 43521  35.1296 163.7715 0013223 352.0460   8.0068 15.94208740423768
SAOCOM 1A               
1 43641U 18076A   26037.16554096  .00000788  00000+0  10557-3 0  9997
2 43641  97.8864 225.7853 0001450  83.7054 276.4324 14.82156297396697
H-2A R/B                
1 43682U 18084L   26037.03758873  .00027207  00000+0  67576-3 0  9994
2 43682  98.8757 247.6942 0026339 131.9263 228.4230 15.39956754400909
SAOCOM 1B               
1 46265U 20059A   26037.19679223  .00000503  00000+0  69686-4 0  9992
2 46265  97.8860 224.9144 0001320  83.9120 276.2244 14.82160465294085
CSS (TIANHE)            
1 48274U 21035A   26037.15319523  .00027917  00000+0  34776-3 0  9998
2 48274  41.4678  39.8452 0005427  11.3299 348.7661 15.59276872272683
COSMOS 2550             
1 48865U 21056A   26037.21769462  .00002671  00000+0  86979-4 0  9998
2 48865  67.1448 136.1289 0008335 270.0789  89.9410 15.33832918258633
CZ-2C R/B               
1 52794U 22058K   26036.40616301  .00043938  00000+0  69408-3 0  9998
2 52794  50.1890 124.0666 0042367  63.8858 296.6462 15.51968467205113
